{"fetched_at":"2026-07-06T18:35:21.846Z","source":"https://celestrak.org/NORAD/elements/gp.php?GROUP=stations&FORMAT=JSON","constellation":"iss","records":[{"OBJECT_NAME":"ISS (ZARYA)","OBJECT_ID":"1998-067A","EPOCH":"2026-07-06T02:08:05.621280","CLASSIFICATION_TYPE":"U","MEAN_MOTION":15.489156,"ECCENTRICITY":0.00067325,"INCLINATION":51.6304,"RA_OF_ASC_NODE":206.5355,"ARG_OF_PERICENTER":261.2547,"MEAN_ANOMALY":98.7678,"EPHEMERIS_TYPE":0,"NORAD_CAT_ID":25544,"ELEMENT_SET_NO":999,"REV_AT_EPOCH":57468,"BSTAR":0.00013761082,"MEAN_MOTION_DOT":0.00007119,"MEAN_MOTION_DDOT":0}]}
